OBJECT_NAME,OBJECT_ID,EPOCH,MEAN_MOTION,ECCENTRICITY,INCLINATION,RA_OF_ASC_NODE,ARG_OF_PERICENTER,MEAN_ANOMALY,EPHEMERIS_TYPE,CLASSIFICATION_TYPE,NORAD_CAT_ID,ELEMENT_SET_NO,REV_AT_EPOCH,BSTAR,MEAN_MOTION_DOT,MEAN_MOTION_DDOT
SUOMI NPP,2011-061A,2026-07-04T19:42:20.193120,14.19521234,.00006162,98.7955,126.5769,295.0250,65.0862,0,U,37849,999,76094,.72858506E-4,.109E-5,0
YAOGAN-12,2011-066B,2026-07-04T23:05:51.622656,15.26810849,.001043,97.1129,223.6953,154.0500,206.1265,0,U,37875,999,81475,.24546747E-3,.6408E-4,0
BEIDOU-2 M4,2012-018B,2026-07-01T01:57:58.611168,1.86229794,.00115796,55.6447,303.6195,274.1308,85.7452,0,U,38251,999,9620,0,-.69E-6,0
ARIRANG-3 (KOMPSAT-3),2012-025B,2026-07-04T23:04:27.596928,14.62222912,.00066927,98.1179,143.1155,65.1080,295.0817,0,U,38338,999,75394,.12128023E-3,.565E-5,0
METOP-B,2012-049A,2026-07-04T20:35:09.404736,14.21444425,.00012096,98.6494,237.0037,317.1555,42.9529,0,U,38771,999,71577,.8185319E-4,.136E-5,0
SJ-9A,2012-056A,2026-07-04T21:07:06.972384,14.85514950,.00250191,97.6719,157.1927,195.7756,164.2683,0,U,38860,999,70221,.16775278E-3,.1404E-4,0
COSMOS 2484 (RODNIK-S 6),2013-001C,2026-07-04T22:26:35.651040,12.42940326,.00261159,82.4994,210.8585,358.2816,1.8170,0,U,39059,999,61076,.69692479E-3,.107E-5,0
SARAL,2013-009A,2026-07-04T22:01:10.926048,14.32893426,.00010625,98.5554,12.2605,198.4301,161.6845,0,U,39086,999,69814,-.2210061E-5,-.5E-6,0
STRAND-1,2013-009E,2026-07-04T17:45:26.120160,14.37174961,.00087833,98.3930,5.5427,170.5824,189.5529,0,U,39090,999,69958,.16398071E-3,.445E-5,0
BRITE-AUSTRIA,2013-009F,2026-07-04T18:14:55.542912,14.36549830,.00101009,98.4004,4.7618,180.9237,179.1932,0,U,39091,999,69957,.11033548E-3,.282E-5,0
GAOFEN-1,2013-018A,2026-07-04T22:53:11.892768,14.76508499,.0016201,97.9087,257.6602,204.7932,155.2501,0,U,39150,999,71086,.7028606E-4,.44E-5,0
PROBA-V,2013-021A,2026-07-04T16:34:03.414720,14.23601984,.00054192,98.3596,163.4337,83.5847,276.5949,0,U,39159,999,68360,.98029814E-4,.182E-5,0
ARIRANG-5 (KOMPSAT-5),2013-042A,2026-07-04T23:46:04.136160,15.04553348,.000531,97.6209,12.4394,79.5519,280.6305,0,U,39227,999,70653,.16571062E-3,.2263E-4,0
GONETS-M 5,2013-048A,2026-07-04T23:38:42.395424,12.42892102,.00169252,82.4848,332.2849,171.1531,188.9850,0,U,39249,999,58109,-.289094E-3,-.3E-6,0
GONETS-M 7,2013-048C,2026-07-04T22:44:53.994624,12.42914705,.00177034,82.4914,335.2397,172.5512,187.5834,0,U,39251,999,58104,-.66074239E-3,-.82E-6,0
FENGYUN 3C,2013-052A,2026-07-04T23:52:35.458176,14.15759183,.00141801,98.4997,159.0528,336.8271,23.2263,0,U,39260,999,66108,.69060164E-4,.94E-6,0
CASSIOPE,2013-055A,2026-07-04T20:46:45.489792,15.26829123,.02857766,80.9130,45.2261,2.8637,357.4145,0,U,39265,999,67036,.60849323E-3,.56395E-3,-.81233E-7
APRIZESAT 7,2013-066A,2026-07-04T14:18:11.604960,14.91603854,.00365133,97.7716,138.5665,151.3854,208.9379,0,U,39416,999,68382,.15904813E-3,.1559E-4,0
ZACUBE-1 (TSHEPISOSAT),2013-066B,2026-07-04T20:53:32.718048,15.01293841,.00432308,97.8034,148.2964,188.3857,171.6650,0,U,39417,999,68338,.41178121E-3,.534E-4,0
APRIZESAT 8,2013-066K,2026-07-04T07:01:50.068704,14.87683163,.00446843,97.8225,132.5230,228.3816,131.3569,0,U,39425,999,68221,.11503882E-3,.1009E-4,0
