SUOMI NPP               
1 37849U 11061A   26185.82106705  .00000109  00000+0  72859-4 0  9995
2 37849  98.7955 126.5769 0000616 295.0250  65.0862 14.19521234760943
YAOGAN-12               
1 37875U 11066B   26185.96240304  .00006408  00000+0  24547-3 0  9996
2 37875  97.1129 223.6953 0010430 154.0500 206.1265 15.26810849814755
BEIDOU-2 M4             
1 38251U 12018B   26182.08192837 -.00000069  00000+0  00000+0 0  9992
2 38251  55.6447 303.6195 0011579 274.1308  85.7452  1.86229794 96203
ARIRANG-3 (KOMPSAT-3)   
1 38338U 12025B   26185.96143052  .00000565  00000+0  12128-3 0  9999
2 38338  98.1179 143.1155 0006692  65.1080 295.0817 14.62222912753946
METOP-B                 
1 38771U 12049A   26185.85774774  .00000136  00000+0  81853-4 0  9991
2 38771  98.6494 237.0037 0001209 317.1555  42.9529 14.21444425715778
SJ-9A                   
1 38860U 12056A   26185.87994181  .00001404  00000+0  16775-3 0  9995
2 38860  97.6719 157.1927 0025019 195.7756 164.2683 14.85514950702219
COSMOS 2484 (RODNIK-S 6)
1 39059U 13001C   26185.93513485  .00000107  00000+0  69692-3 0  9993
2 39059  82.4994 210.8585 0026115 358.2816   1.8170 12.42940326610761
SARAL                   
1 39086U 13009A   26185.91748757 -.00000050  00000+0 -22101-5 0  9996
2 39086  98.5554  12.2605 0001062 198.4301 161.6845 14.32893426698146
STRAND-1                
1 39090U 13009E   26185.73988565  .00000445  00000+0  16398-3 0  9999
2 39090  98.3930   5.5427 0008783 170.5824 189.5529 14.37174961699580
BRITE-AUSTRIA           
1 39091U 13009F   26185.76036508  .00000282  00000+0  11034-3 0  9995
2 39091  98.4004   4.7618 0010100 180.9237 179.1932 14.36549830699578
GAOFEN-1                
1 39150U 13018A   26185.95360987  .00000440  00000+0  70286-4 0  9994
2 39150  97.9087 257.6602 0016201 204.7932 155.2501 14.76508499710869
PROBA-V                 
1 39159U 13021A   26185.69031730  .00000182  00000+0  98030-4 0  9999
2 39159  98.3596 163.4337 0005419  83.5847 276.5949 14.23601984683603
ARIRANG-5 (KOMPSAT-5)   
1 39227U 13042A   26185.99032565  .00002263  00000+0  16571-3 0  9999
2 39227  97.6209  12.4394 0005310  79.5519 280.6305 15.04553348706539
GONETS-M 5              
1 39249U 13048A   26185.98521291 -.00000030  00000+0 -28909-3 0  9997
2 39249  82.4848 332.2849 0016925 171.1531 188.9850 12.42892102581099
GONETS-M 7              
1 39251U 13048C   26185.94784716 -.00000082  00000+0 -66074-3 0  9991
2 39251  82.4914 335.2397 0017703 172.5512 187.5834 12.42914705581042
FENGYUN 3C              
1 39260U 13052A   26185.99485484  .00000094  00000+0  69060-4 0  9991
2 39260  98.4997 159.0528 0014180 336.8271  23.2263 14.15759183661085
CASSIOPE                
1 39265U 13055A   26185.86580428  .00056395 -81233-7  60849-3 0  9995
2 39265  80.9130  45.2261 0285776   2.8637 357.4145 15.26829123670369
APRIZESAT 7             
1 39416U 13066A   26185.59596765  .00001559  00000+0  15905-3 0  9995
2 39416  97.7716 138.5665 0036513 151.3854 208.9379 14.91603854683827
ZACUBE-1 (TSHEPISOSAT)  
1 39417U 13066B   26185.87051757  .00005340  00000+0  41178-3 0  9997
2 39417  97.8034 148.2964 0043230 188.3857 171.6650 15.01293841683381
APRIZESAT 8             
1 39425U 13066K   26185.29294061  .00001009  00000+0  11504-3 0  9997
2 39425  97.8225 132.5230 0044684 228.3816 131.3569 14.87683163682214
